{"type": "FeatureCollection", "features": [{"type": "Feature", "properties": {"featurecla": "Admin-1 scale rank", "scalerank": 2, "adm1_code": "USA-3563", "diss_me": 3563, "iso_3166_2": "US-AK", "wikipedia": "http://en.wikipedia.org/wiki/Alaska", "iso_a2": "US", "adm0_sr": 6, "name": "Alaska", "name_alt": "AK|Alaska", "name_local": null, "type": "State", "type_en": "State", "code_local": "US02", "code_hasc": "US.AK", "note": null, "hasc_maybe": null, "region": "West", "region_cod": null, "provnum_ne": 0, "gadm_level": 1, "check_me": 20, "datarank": 1, "abbrev": "Alaska", "postal": "AK", "area_sqkm": 0, "sameascity": -99, "labelrank": 0, "name_len": 6, "mapcolor9": 1, "mapcolor13": 1, "fips": "US02", "fips_alt": null, "woe_id": 2347560, "woe_label": "Alaska, US, United States", "woe_name": "Alaska", "latitude": 65.3609, "longitude": -151.604, "sov_a3": "US1", "adm0_a3": "USA", "adm0_label": 2, "admin": "United States of America", "geonunit": "United States of America", "gu_a3": "USA", "gn_id": 5879092, "gn_name": "Alaska", "gns_id": -1, "gns_name": null, "gn_level": 1, "gn_region": null, "gn_a1_code": "US.AK", "region_sub": "Pacific", "sub_code": null, "gns_level": -1, "gns_lang": null, "gns_adm1": null, "gns_region": null, "min_label": 3.5, "max_label": 7.5, "min_zoom": 2, "wikidataid": "Q797", "name_ar": "\u0623\u0644\u0627\u0633\u0643\u0627", "name_bn": "\u0986\u09b2\u09be\u09b8\u09cd\u0995\u09be", "name_de": "Alaska", "name_en": "Alaska", "name_es": "Alaska", "name_fr": "Alaska", "name_el": "\u0391\u03bb\u03ac\u03c3\u03ba\u03b1", "name_hi": "\u0905\u0932\u093e\u0938\u094d\u0915\u093e", "name_hu": "Alaszka", "name_id": "Alaska", "name_it": "Alaska", "name_ja": "\u30a2\u30e9\u30b9\u30ab\u5dde", "name_ko": "\uc54c\ub798\uc2a4\uce74", "name_nl": "Alaska", "name_pl": "Alaska", "name_pt": "Alasca", "name_ru": "\u0410\u043b\u044f\u0441\u043a\u0430", "name_sv": "Alaska", "name_tr": "Alaska", "name_vi": "Alaska", "name_zh": "\u963f\u62c9\u65af\u52a0\u5dde", "ne_id": 1159308731, "name_he": "\u05d0\u05dc\u05e1\u05e7\u05d4", "name_uk": "\u0410\u043b\u044f\u0441\u043a\u0430", "name_ur": "\u0627\u0644\u0627\u0633\u06a9\u0627", "name_fa": "\u0622\u0644\u0627\u0633\u06a9\u0627", "name_zht": "\u963f\u62c9\u65af\u52a0\u5dde", "FCLASS_ISO": null, "FCLASS_US": null, "FCLASS_FR": null, "FCLASS_RU": null, "FCLASS_ES": null, "FCLASS_CN": null, "FCLASS_TW": null, "FCLASS_IN": null, "FCLASS_NP": null, "FCLASS_PK": null, "FCLASS_DE": null, "FCLASS_GB": null, "FCLASS_BR": null, "FCLASS_IL": null, "FCLASS_PS": null, "FCLASS_SA": null, "FCLASS_EG": null, "FCLASS_MA": null, "FCLASS_PT": null, "FCLASS_AR": null, "FCLASS_JP": null, "FCLASS_KO": null, "FCLASS_VN": null, "FCLASS_TR": null, "FCLASS_ID": null, "FCLASS_PL": null, "FCLASS_GR": null, "FCLASS_IT": null, "FCLASS_NL": null, "FCLASS_SE": null, "FCLASS_BD": null, "FCLASS_UA": null, "FCLASS_TLC": null}, "geometry": {"type": "MultiPolygon", "coordinates": [[[[-153.22872941792107, 57.968968410872435], [-152.5647906158351, 57.90142731386709], [-152.14114722390633, 57.59105866152203], [-153.0063140533369, 57.115842190166006], [-154.0050902984581, 56.73467682558106], [-154.51640275777007, 56.992748928446815], [-154.67099280497115, 57.46119578717253], [-153.76277950744145, 57.81657461204378], [-153.22872941792107, 57.968968410872435]]], [[[-166.46779212142462, 60.38416982689773], [-165.67442969466367, 60.29360687930625], [-165.57916419173358, 59.909986884187674], [-166.19277014876727, 59.7544408229889], [-166.848337368822, 59.94140615502107], [-167.45527706609005, 60.21306915957939], [-166.46779212142462, 60.38416982689773]]], [[[-171.73165686753939, 63.782515367276005], [-171.11443356024523, 63.592191067144995], [-170.4911124339407, 63.69497549097355], [-169.68250545965356, 63.43111562769127], [-168.68943946030066, 63.2975062120006], [-168.7719408844546, 63.18859813094548], [-169.52943986720504, 62.97693146427798], [-170.29055620021597, 63.19443756779441], [-170.67138566799088, 63.375821845139], [-171.55306311753867, 63.31778921167512], [-171.79111060289117, 63.4058458523005], [-171.73165686753939, 63.782515367276005]]], [[[-140.9859883290049, 69.71199839952624], [-140.98598752156073, 69.71199839952624], [-140.99249875202946, 66.00002859156871], [-140.99776974812323, 60.3063967962986], [-140.0129978161532, 60.27683787702762], [-139.03900042031586, 60.000007229240055], [-138.34087765826888, 59.56210114199871], [-137.4525081107393, 58.90498362897523], [-136.47972511106087, 59.463864244211834], [-135.4758328991428, 59.787772121817284], [-134.94498674842458, 59.270542711008034], [-134.27110023312235, 58.86111033795942], [-133.3555488822072, 58.41028514264519], [-132.730420695661, 57.69288707135314], [-131.70782161525324, 56.552103990293915], [-130.0077703457152, 55.91581207948417], [-129.97999426335826, 55.28499787049725], [-130.53611018946725, 54.8027534043494], [-131.08581823797215, 55.17890615500187], [-131.9672114671423, 55.49777558045906], [-132.25001074285956, 56.36999624289746], [-133.53918108435641, 57.17888743756214], [-134.07806292029613, 58.12306753196691], [-135.03821103227915, 58.18771474876394], [-136.62806230995477, 58.21220937767032], [-137.800006279686, 58.49999542910382], [-139.867787041413, 59.53776154238915], [-140.825273817133, 59.727517401764885], [-142.57444353556446, 60.084446519605024], [-143.9588809948799, 59.99918040632343], [-145.92555681682782, 60.458609727614316], [-147.11437394914665, 60.884656073644635], [-148.22430620012764, 60.672989406977024], [-148.01806555885076, 59.97832896589364], [-148.57082251686077, 59.91417267520313], [-149.72785783587585, 59.70565827090559], [-150.60824337461634, 59.36821116803952], [-151.7163927886833, 59.15582103131999], [-151.85943315326716, 59.74498403587961], [-151.40971900124717, 60.72580272077943], [-150.3469414947325, 61.03358755150987], [-150.62111080625706, 61.284424953854455], [-151.89583919981683, 60.72719798445132], [-152.57832984109558, 60.06165721296429], [-154.0191721262576, 59.35027944603428], [-153.28751135965308, 58.86472768821983], [-154.23249243875847, 58.14637360293057], [-155.30749142151012, 57.72779450136636], [-156.30833472392308, 57.42277435976365], [-156.5560973785464, 56.97998484967064], [-158.11721655986773, 56.46360809999402], [-158.43332129619714, 55.994153550838575], [-159.60332739971744, 55.56668610292013], [-160.2897196116342, 55.643580634170405], [-161.2230476552578, 55.364734605523495], [-162.23776607974096, 55.02418691672011], [-163.06944658104638, 54.68973704692718], [-164.7855692210273, 54.404173082082195], [-164.9422263255201, 54.57222483989534], [-163.84833960676565, 55.03943146424615], [-162.8700013906159, 55.34804311789321], [-161.804174974596, 55.894986477270436], [-160.56360470278122, 56.00805451112507], [-160.0705598622844, 56.41805532492879], [-158.68444291891953, 57.01667511659787], [-158.46109737855406, 57.21692129172891], [-157.72277035218386, 57.57000051536306], [-157.55027442119365, 58.32832632103026], [-157.041674974577, 58.91888458926172], [-158.19473120830557, 58.615802313869835], [-158.51721798402306, 58.78778148053732], [-159.05860612692882, 58.424186102931685], [-159.71166704001732, 58.931390285876375], [-159.98128882550017, 58.572549140041644], [-160.3552711659965, 59.07112335879367], [-161.35500342511511, 58.670837714260756], [-161.96889360252644, 58.67166453717738], [-162.05498653872465, 59.26692536074745], [-161.87417070213542, 59.63362132429063], [-162.51805904849215, 59.98972361921392], [-163.81834143782024, 59.79805573184342], [-164.66221757714655, 60.26748444278269], [-165.3463877024748, 60.50749563256244], [-165.35083187565192, 61.073895168697504], [-166.12137915755605, 61.50001902937623], [-165.7344518707706, 62.07499685327184], [-164.91917863671785, 62.63307648380794], [-164.56250790103934, 63.14637848576308], [-163.7533324859971, 63.2194489610236], [-163.0672244944579, 63.05945872664802], [-162.2605553863817, 63.54193573674121], [-161.53444983624857, 63.455816962326764], [-160.7725066803211, 63.7661081000233], [-160.95833513084264, 64.2227985704028], [-161.5180684072121, 64.40278758407533], [-160.77777767641484, 64.78860382756642], [-161.3919262359876, 64.77723501246214], [-162.45305009666893, 64.55944468856808], [-162.7577860178941, 64.33860545516882], [-163.54639421288428, 64.5591604681905], [-164.96082984114514, 64.44694509546872], [-166.4252882558645, 64.68667206487072], [-166.84500423893914, 65.08889557561457], [-168.11056006576706, 65.66999705673675], [-166.70527116602193, 66.08831777613943], [-164.4747096425755, 66.5766600612975], [-163.65251176659567, 66.5766600612975], [-163.78860165103626, 66.0772073431965], [-161.67777442121013, 66.11611969671242], [-162.48971452538007, 66.73556509059512], [-163.7197169667912, 67.11639455837013], [-164.43099138085654, 67.61633820257782], [-165.39028683170673, 68.04277212185025], [-166.76444068099607, 68.35887685817971], [-166.2047074046267, 68.8830309109162], [-164.43081051334357, 68.91553538682774], [-163.16861365461452, 69.37111481391293], [-162.930566169262, 69.85806183539927], [-161.9088972646355, 70.33332998318764], [-160.93479651593367, 70.44768992784958], [-159.03917578838704, 70.89164215766897], [-158.11972286683397, 70.82472117785107], [-156.58082455139802, 71.35776357694175], [-155.0677902903243, 71.14777639432373], [-154.3441652089412, 70.69640859647023], [-153.9000062733925, 70.88998851183572], [-152.2100060699353, 70.82999217394467], [-152.27000240782613, 70.60000621202988], [-150.7399924387445, 70.43001658800574], [-149.72000301816752, 70.53001048449045], [-147.61336157935696, 70.2140349392418], [-145.68998980022536, 70.12000967068678], [-144.92001095907642, 69.9899917670403], [-143.58944618042528, 70.15251414659832], [-142.07251034871354, 69.85193817817265], [-140.9859883290049, 69.71199839952624]]]]}}]}