{
"type": "FeatureCollection",
"name": "healthsites_alaska",
"crs": { "type": "name", "properties": { "name": "urn:ogc:def:crs:OGC:1.3:CRS84" } },
"features": [
{ "type": "Feature", "properties": { "id": "cd8c5445c78e4b6a898650cb18a2afc0", "name": "SEARHC Health Clinic", "amenity": "clinic", "healthcare": "clinic", "address": null }, "geometry": { "type": "Point", "coordinates": [ -133.942460100913848, 56.975240293039292 ] } },
{ "type": "Feature", "properties": { "id": "660a6a88d01346da940bb1bf75c7ecc0", "name": "Maniilaq Health Center", "amenity": "hospital", "healthcare": "hospital", "address": null }, "geometry": { "type": "Point", "coordinates": [ -162.587061697754393, 66.895962759947025 ] } },
{ "type": "Feature", "properties": { "id": "a7fbaa772fef4149afdcac20b0f5b499", "name": "Участковая больница села Нешкан", "amenity": "hospital", "healthcare": null, "address": null }, "geometry": { "type": "Point", "coordinates": [ -172.966391609302121, 67.038373179220841 ] } },
{ "type": "Feature", "properties": { "id": "e648294b278746d2b7b167a016f4105e", "name": "Providence Extended Stay", "amenity": "hospital", "healthcare": "hospital", "address": null }, "geometry": { "type": "Point", "coordinates": [ -149.774346218243835, 61.212102288549048 ] } },
{ "type": "Feature", "properties": { "id": "104809159f2a4edfa266cf5ec450160c", "name": "Carrs Aurora Village", "amenity": "pharmacy", "healthcare": "pharmacy", "address": null }, "geometry": { "type": "Point", "coordinates": [ -149.916176965822274, 61.194196735529346 ] } },
{ "type": "Feature", "properties": { "id": "c9f9769419ab49d6a29b3ec77d1f7c6f", "name": "Frost Dental", "amenity": "dentist", "healthcare": null, "address": null }, "geometry": { "type": "Point", "coordinates": [ -149.822806755420913, 61.219455768380811 ] } },
{ "type": "Feature", "properties": { "id": "10b6cc8913204450a9246199ab67004d", "name": "Alaska Children's Eye and Strabismus", "amenity": "doctors", "healthcare": "doctor", "address": null }, "geometry": { "type": "Point", "coordinates": [ -149.859104503294787, 61.188858385217173 ] } },
{ "type": "Feature", "properties": { "id": "0409e7fc5ab94ac6a6b253a5b6895bb9", "name": "Public Health", "amenity": null, "healthcare": "clinic", "address": null }, "geometry": { "type": "Point", "coordinates": [ -133.726281540740985, 68.356055983187701 ] } },
{ "type": "Feature", "properties": { "id": "b991775641514d0ca86279ec6d43d857", "name": null, "amenity": "clinic", "healthcare": "clinic", "address": null }, "geometry": { "type": "Point", "coordinates": [ -131.624343525661033, 55.333629672923855 ] } },
{ "type": "Feature", "properties": { "id": "097ea0e3cde7495b9a4360a006505110", "name": "Alaska Endodontics Specialists LLC", "amenity": "doctors", "healthcare": "doctor", "address": null }, "geometry": { "type": "Point", "coordinates": [ -149.837192280561482, 61.184155131708451 ] } },
{ "type": "Feature", "properties": { "id": "9805e6947d614224bb160aaa52139f98", "name": null, "amenity": "clinic", "healthcare": "clinic", "address": null }, "geometry": { "type": "Point", "coordinates": [ -154.8695019104278, 59.754232855142995 ] } },
{ "type": "Feature", "properties": { "id": "e881432c7cb74b4399497ef3fd5da9b6", "name": "Peninsula Allergy & Asthma Center", "amenity": "clinic", "healthcare": "clinic", "address": null }, "geometry": { "type": "Point", "coordinates": [ -151.070460544601872, 60.4819649232942 ] } },
{ "type": "Feature", "properties": { "id": "8c2be4870d0249d9852c4207cce55ded", "name": "Kachemak Professional Building", "amenity": "doctors", "healthcare": null, "address": null }, "geometry": { "type": "Point", "coordinates": [ -151.550774064662278, 59.651032537810224 ] } },
{ "type": "Feature", "properties": { "id": "20e9bbaaf6784540b50c6bc878461466", "name": "Fred Meyer Pharmacy", "amenity": "pharmacy", "healthcare": "pharmacy", "address": null }, "geometry": { "type": "Point", "coordinates": [ -151.048406961071521, 60.489306674193386 ] } },
{ "type": "Feature", "properties": { "id": "9137a39a902b49a893087fcbd78a0004", "name": "Fairbanks Dental Center", "amenity": "dentist", "healthcare": "dentist", "address": null }, "geometry": { "type": "Point", "coordinates": [ -147.79509155856357, 64.837385654628562 ] } },
{ "type": "Feature", "properties": { "id": "6508b5b3947943859e51714fcc60030f", "name": "Aerospace Medicine", "amenity": "clinic", "healthcare": null, "address": null }, "geometry": { "type": "Point", "coordinates": [ -149.808069609442214, 61.242360995183049 ] } },
{ "type": "Feature", "properties": { "id": "688bc7ead10c4e719d22cffc04c6a3e6", "name": "Stewart Health Centre", "amenity": "hospital", "healthcare": "hospital", "address": null }, "geometry": { "type": "Point", "coordinates": [ -129.990040293916195, 55.940004668507903 ] } },
{ "type": "Feature", "properties": { "id": "a119842ed515413082edf2407ff1313f", "name": null, "amenity": "clinic", "healthcare": "clinic", "address": null }, "geometry": { "type": "Point", "coordinates": [ -168.859826316470247, 52.93849683620661 ] } },
{ "type": "Feature", "properties": { "id": "4df9d37d72394ea698d6cb3e75b64cfe", "name": "Alaska Island Community Services", "amenity": "clinic", "healthcare": "clinic", "address": null }, "geometry": { "type": "Point", "coordinates": [ -132.384315736240012, 56.471039138911358 ] } },
{ "type": "Feature", "properties": { "id": "db0ffc25ce05419a974b181987c9c2c0", "name": "Geneva Woods", "amenity": "pharmacy", "healthcare": "pharmacy", "address": null }, "geometry": { "type": "Point", "coordinates": [ -149.892531030236569, 61.174308826231481 ] } },
{ "type": "Feature", "properties": { "id": "3253d878622a462295aed1ebed76386d", "name": "Anna Livingston Medical Clinic", "amenity": "clinic", "healthcare": "clinic", "address": null }, "geometry": { "type": "Point", "coordinates": [ -162.718147031753631, 55.201038172015537 ] } },
{ "type": "Feature", "properties": { "id": "6550b3dd8b074bef869c4486c6e53d33", "name": null, "amenity": "dentist", "healthcare": "dentist", "address": null }, "geometry": { "type": "Point", "coordinates": [ -149.698677818453064, 61.255778686396468 ] } },
{ "type": "Feature", "properties": { "id": "05a2efb77b3d45cab81e08a3540a6197", "name": "Walgreens", "amenity": "pharmacy", "healthcare": "pharmacy", "address": null }, "geometry": { "type": "Point", "coordinates": [ -149.739333840728733, 61.209241092722358 ] } },
{ "type": "Feature", "properties": { "id": "323d20493dc041b199a6029b187555ea", "name": "Alaska Retinal Consultants", "amenity": "clinic", "healthcare": null, "address": null }, "geometry": { "type": "Point", "coordinates": [ -149.885495338028619, 61.169823385302394 ] } },
{ "type": "Feature", "properties": { "id": "9074a636829a4a82976bfe256b88c135", "name": "North Star Palmer Residential Treatment Center", "amenity": "hospital", "healthcare": "hospital", "address": null }, "geometry": { "type": "Point", "coordinates": [ -149.067635699390706, 61.623998817610328 ] } },
{ "type": "Feature", "properties": { "id": "98a95c017fad43f293c8c10d5aa0b74b", "name": "Sunshine Community Health Center", "amenity": "clinic", "healthcare": "clinic", "address": null }, "geometry": { "type": "Point", "coordinates": [ -150.052561385481766, 62.190353902997806 ] } },
{ "type": "Feature", "properties": { "id": "3d55543ff8564b1fb477e51d70a8cc23", "name": "Alaska Advanced Destistry", "amenity": "dentist", "healthcare": "dentist", "address": null }, "geometry": { "type": "Point", "coordinates": [ -149.863520844257863, 61.158087245200761 ] } },
{ "type": "Feature", "properties": { "id": "8436660a02db4e8b89524861e947b743", "name": "Juneau Urgent Care", "amenity": "doctors", "healthcare": "doctor", "address": null }, "geometry": { "type": "Point", "coordinates": [ -134.572859942784106, 58.361944664956283 ] } },
{ "type": "Feature", "properties": { "id": "1cc96d8548dd4ac49e5d01f6a18cebe2", "name": "Providence Kodiak Island Medical Center", "amenity": "hospital", "healthcare": "hospital", "address": null }, "geometry": { "type": "Point", "coordinates": [ -152.375607735487648, 57.800899995643306 ] } },
{ "type": "Feature", "properties": { "id": "7ff6d4bcb22547ba9f514b35c2c57ad9", "name": "Carrs", "amenity": "pharmacy", "healthcare": "pharmacy", "address": null }, "geometry": { "type": "Point", "coordinates": [ -149.126497164544645, 61.597963991690705 ] } },
{ "type": "Feature", "properties": { "id": "27e151d1ebe3466a838b6526385677a9", "name": "FAMILY MEDICAL DENTAL CENTER", "amenity": "dentist", "healthcare": "dentist", "address": null }, "geometry": { "type": "Point", "coordinates": [ -149.777191013427114, 61.181050893868132 ] } },
{ "type": "Feature", "properties": { "id": "51524d3b2cc44f49b7ce66fca46ec538", "name": "Thomas J Munger III, DDS", "amenity": "dentist", "healthcare": "dentist", "address": null }, "geometry": { "type": "Point", "coordinates": [ -149.857617861583435, 61.103234142261726 ] } },
{ "type": "Feature", "properties": { "id": "49ebf82ac99b4b1390bd380cff5a0ec6", "name": "Alaska Center for Dentistry, PC", "amenity": "dentist", "healthcare": "dentist", "address": null }, "geometry": { "type": "Point", "coordinates": [ -149.405851748082483, 61.588062365652775 ] } },
{ "type": "Feature", "properties": { "id": "6843400af7974110a0af8b74079fa01e", "name": "36,6", "amenity": "pharmacy", "healthcare": "pharmacy", "address": null }, "geometry": { "type": "Point", "coordinates": [ -171.005066053685056, 65.579834032926414 ] } },
{ "type": "Feature", "properties": { "id": "615208feaae54eb5be088be36236835f", "name": "Yukon Sexual Health Clinic", "amenity": "clinic", "healthcare": "clinic", "address": null }, "geometry": { "type": "Point", "coordinates": [ -135.056453029279851, 60.717382366677271 ] } },
{ "type": "Feature", "properties": { "id": "2912998c78a147aeaa50c2def7fb2310", "name": "ФАП", "amenity": "hospital", "healthcare": null, "address": null }, "geometry": { "type": "Point", "coordinates": [ -175.378376840456127, 64.799545567421518 ] } },
{ "type": "Feature", "properties": { "id": "c894d9ceffa2407aafddf24c66990404", "name": "Northern Lights Imaging", "amenity": "hospital", "healthcare": null, "address": null }, "geometry": { "type": "Point", "coordinates": [ -149.840945361526451, 61.194964685498121 ] } },
{ "type": "Feature", "properties": { "id": "037e2d9ea7334c2a9006cf1bb730fcd6", "name": "Wellness Center", "amenity": "clinic", "healthcare": "clinic", "address": null }, "geometry": { "type": "Point", "coordinates": [ -156.791994631410006, 71.290694394685829 ] } },
{ "type": "Feature", "properties": { "id": "195c92f1eb04469d85cc581743cfaa80", "name": "Aurora Family Dentistry", "amenity": "dentist", "healthcare": "dentist", "address": null }, "geometry": { "type": "Point", "coordinates": [ -149.870686617099949, 61.196357673986512 ] } },
{ "type": "Feature", "properties": { "id": "baded31d76a24230bfb40435e1d0f8c1", "name": "SERHC", "amenity": "doctors", "healthcare": "doctor", "address": null }, "geometry": { "type": "Point", "coordinates": [ -134.46923121146699, 58.329730948219805 ] } },
{ "type": "Feature", "properties": { "id": "a6ada0f4595f42709895d369f2385556", "name": "354th Medical Group", "amenity": "clinic", "healthcare": "clinic", "address": null }, "geometry": { "type": "Point", "coordinates": [ -147.092624503815955, 64.678406698539504 ] } },
{ "type": "Feature", "properties": { "id": "e970c53ee8554f5da9c8015ee8196d10", "name": "Noorvik Clinic", "amenity": "clinic", "healthcare": "clinic", "address": null }, "geometry": { "type": "Point", "coordinates": [ -161.042201187384592, 66.835237201126844 ] } },
{ "type": "Feature", "properties": { "id": "e6d3131ca00740a3965b74c11c56d416", "name": "Walgreens", "amenity": "pharmacy", "healthcare": "pharmacy", "address": null }, "geometry": { "type": "Point", "coordinates": [ -149.855249246930128, 61.108302093111348 ] } },
{ "type": "Feature", "properties": { "id": "8d4ca97785c449a3889719b623f44178", "name": "Frontier Natural Health", "amenity": "doctors", "healthcare": "naturopath", "address": null }, "geometry": { "type": "Point", "coordinates": [ -151.517761302430046, 59.651019594179445 ] } },
{ "type": "Feature", "properties": { "id": "f3f843287aa04f4eaf330250726d5155", "name": "Imaging Associates of Providence", "amenity": "clinic", "healthcare": "clinic", "address": null }, "geometry": { "type": "Point", "coordinates": [ -149.253367386642253, 61.559878912019492 ] } },
{ "type": "Feature", "properties": { "id": "2ac6b43867c748199b615f31a38d7e19", "name": "Homer Dental Clinic", "amenity": "dentist", "healthcare": "dentist", "address": null }, "geometry": { "type": "Point", "coordinates": [ -151.547344663964935, 59.651812803804127 ] } },
{ "type": "Feature", "properties": { "id": "65c4f9b8b10548c2acd6687c8e694be2", "name": "Chris Kyle Patriots Hospital", "amenity": "hospital", "healthcare": "hospital", "address": null }, "geometry": { "type": "Point", "coordinates": [ -149.809428476933846, 61.205637142510184 ] } },
{ "type": "Feature", "properties": { "id": "665e17bf30a24f8e9ea67f3c709f510f", "name": "Providence Family Medicine", "amenity": "clinic", "healthcare": "clinic", "address": null }, "geometry": { "type": "Point", "coordinates": [ -149.860372349968799, 61.188478768822449 ] } },
{ "type": "Feature", "properties": { "id": "4a7cc35392df40f1bb024c19bce7d781", "name": "Denali Family dental", "amenity": null, "healthcare": "dentist", "address": null }, "geometry": { "type": "Point", "coordinates": [ -149.876126556078589, 61.18923029026098 ] } },
{ "type": "Feature", "properties": { "id": "bdad0fbfbe55491299c69a1d1106b9ea", "name": "Frank Tobuk Sr. Clinic", "amenity": "clinic", "healthcare": "clinic", "address": null }, "geometry": { "type": "Point", "coordinates": [ -151.505636887430143, 66.924455964445954 ] } },
{ "type": "Feature", "properties": { "id": "f51f87d2ec734ccba8da34538218705a", "name": "Alaska Regional Hospital", "amenity": "hospital", "healthcare": "hospital", "address": null }, "geometry": { "type": "Point", "coordinates": [ -149.830311133289939, 61.210333326042353 ] } },
{ "type": "Feature", "properties": { "id": "f27a7e8085df49ce8f8d72ba2e1b0bbd", "name": null, "amenity": "hospital", "healthcare": "hospital", "address": null }, "geometry": { "type": "Point", "coordinates": [ -132.37247660908713, 56.463153815506182 ] } },
{ "type": "Feature", "properties": { "id": "1dd91fc8ad4648bb8e2f87fa5d974b1a", "name": "Katmai Eye and Vision Center", "amenity": null, "healthcare": "optometrist", "address": null }, "geometry": { "type": "Point", "coordinates": [ -149.862949701375641, 61.107159974984938 ] } },
{ "type": "Feature", "properties": { "id": "590e1942009b4653b51b5ddeb4b4fe20", "name": "Oral & Implant Surgery", "amenity": "dentist", "healthcare": "dentist", "address": null }, "geometry": { "type": "Point", "coordinates": [ -151.546365602688127, 59.644092573439664 ] } },
{ "type": "Feature", "properties": { "id": "435509936c06441da766a89ab29f859f", "name": "Thomas P. Senter M.D. Dermatology", "amenity": "doctors", "healthcare": "doctor", "address": null }, "geometry": { "type": "Point", "coordinates": [ -149.881555380672353, 61.21575631075811 ] } },
{ "type": "Feature", "properties": { "id": "1166a436aae74a20ac2d2caf4ffce8d8", "name": "U.S. Department of Veterans Affairs, Domiciliary Care Program", "amenity": "clinic", "healthcare": "clinic", "address": null }, "geometry": { "type": "Point", "coordinates": [ -149.885697683674351, 61.193452338708511 ] } },
{ "type": "Feature", "properties": { "id": "d1322d998b4343ef9134ac9983182f24", "name": "Point Hope Health Clinic", "amenity": "clinic", "healthcare": "clinic", "address": null }, "geometry": { "type": "Point", "coordinates": [ -166.73633140546562, 68.348259400531589 ] } },
{ "type": "Feature", "properties": { "id": "ac35901ab67a4f949f6a044191e3cc72", "name": "Clinic", "amenity": "clinic", "healthcare": null, "address": null }, "geometry": { "type": "Point", "coordinates": [ -156.881454120855039, 66.907423803760778 ] } },
{ "type": "Feature", "properties": { "id": "626e646fd67a404099f7d3e088feafbe", "name": "Arctic Chiropractic Clinic", "amenity": null, "healthcare": "alternative", "address": null }, "geometry": { "type": "Point", "coordinates": [ -156.77362233784396, 71.288405548386237 ] } },
{ "type": "Feature", "properties": { "id": "f7b41d52808c417fb6ca82a6c93d4b22", "name": "Walgreens", "amenity": "pharmacy", "healthcare": "pharmacy", "address": null }, "geometry": { "type": "Point", "coordinates": [ -149.919666016837283, 61.138273096650835 ] } },
{ "type": "Feature", "properties": { "id": "d41c285dd05645b69e62e32d6cef74a7", "name": "Annette Island Service Unit", "amenity": "clinic", "healthcare": "clinic", "address": null }, "geometry": { "type": "Point", "coordinates": [ -131.575706181627339, 55.124300760932741 ] } },
{ "type": "Feature", "properties": { "id": "01cca492118f4eb3865504c70c93c572", "name": null, "amenity": null, "healthcare": "alternative", "address": null }, "geometry": { "type": "Point", "coordinates": [ -151.520635339240272, 59.65045712015737 ] } },
{ "type": "Feature", "properties": { "id": "30c798a50626422dae875e09118ac230", "name": null, "amenity": "clinic", "healthcare": "clinic", "address": null }, "geometry": { "type": "Point", "coordinates": [ -149.369745698463589, 61.586298929297385 ] } },
{ "type": "Feature", "properties": { "id": "d70f861ed36940c8ac39a8a5cebdf8b3", "name": "Anchor Point Health Center", "amenity": null, "healthcare": "clinic", "address": null }, "geometry": { "type": "Point", "coordinates": [ -151.834541636401923, 59.779221257813418 ] } },
{ "type": "Feature", "properties": { "id": "b7526d22a4e24ded8eead196e25267f9", "name": "Walgreens", "amenity": "pharmacy", "healthcare": "pharmacy", "address": null }, "geometry": { "type": "Point", "coordinates": [ -149.868834404964559, 61.19614934393006 ] } },
{ "type": "Feature", "properties": { "id": "e7cb14a7923d4377b51268f985d7a5aa", "name": "USFS/ Public Health Clinic", "amenity": "clinic", "healthcare": "clinic", "address": null }, "geometry": { "type": "Point", "coordinates": [ -139.72932430383608, 59.545009341686729 ] } },
{ "type": "Feature", "properties": { "id": "f1e5f9cf0a0b4977b46864dfeb25c34a", "name": "Gambell Clinic", "amenity": "clinic", "healthcare": "clinic", "address": null }, "geometry": { "type": "Point", "coordinates": [ -171.726946556604616, 63.778531923771801 ] } },
{ "type": "Feature", "properties": { "id": "7b762c152661400d86def087515ef9fb", "name": "Walgreens", "amenity": "pharmacy", "healthcare": "pharmacy", "address": null }, "geometry": { "type": "Point", "coordinates": [ -149.836877037183115, 61.181516927684584 ] } },
{ "type": "Feature", "properties": { "id": "b0ded9c9c1194e2595a28c53074a2975", "name": null, "amenity": "clinic", "healthcare": "clinic", "address": null }, "geometry": { "type": "Point", "coordinates": [ -149.912438637006886, 61.189252418485353 ] } },
{ "type": "Feature", "properties": { "id": "ca7d7ad54511453c8882d7c8b3b3c4a5", "name": "Providence Medical Arts Pharmacy", "amenity": "pharmacy", "healthcare": "pharmacy", "address": null }, "geometry": { "type": "Point", "coordinates": [ -149.819505459036975, 61.189460624960191 ] } },
{ "type": "Feature", "properties": { "id": "cd00d965c59049d39678ed2bf04493f8", "name": "Women Infants Children (WIC)", "amenity": "clinic", "healthcare": "clinic", "address": null }, "geometry": { "type": "Point", "coordinates": [ -151.543880829358557, 59.640171668014979 ] } },
{ "type": "Feature", "properties": { "id": "74fb01be3a944a9d9c705a3f609e1bf9", "name": "Dr Karen Fait", "amenity": null, "healthcare": "alternative", "address": null }, "geometry": { "type": "Point", "coordinates": [ -130.3250001160728, 54.313050274999057 ] } },
{ "type": "Feature", "properties": { "id": "6486caa4c4a0431c8ed2938f2846414c", "name": "Qeyeghu Nughedełi", "amenity": null, "healthcare": "rehabilitation", "address": null }, "geometry": { "type": "Point", "coordinates": [ -149.835203518621938, 61.184240889498092 ] } },
{ "type": "Feature", "properties": { "id": "6ceab728021b47928fd90baa4f4fecaa", "name": "Birch Lodge", "amenity": "hospital", "healthcare": "hospital", "address": null }, "geometry": { "type": "Point", "coordinates": [ -135.065599194384731, 60.724754795342101 ] } },
{ "type": "Feature", "properties": { "id": "abbbe42ecd9a4b02883dedfd175a99db", "name": null, "amenity": "hospital", "healthcare": "hospital", "address": null }, "geometry": { "type": "Point", "coordinates": [ -173.241754968597377, 64.420580849198515 ] } },
{ "type": "Feature", "properties": { "id": "7c50c942cd2e43e4b94d23aaf92db0c7", "name": "Niislaa Naay", "amenity": "clinic", "healthcare": "clinic", "address": null }, "geometry": { "type": "Point", "coordinates": [ -132.174224256197448, 54.034213950702153 ] } },
{ "type": "Feature", "properties": { "id": "e4e1418643054d779cded79946f91585", "name": "Four Corners Dental Group Fairbanks", "amenity": "dentist", "healthcare": "dentist", "address": null }, "geometry": { "type": "Point", "coordinates": [ -147.806375243026366, 64.836330217855902 ] } },
{ "type": "Feature", "properties": { "id": "c6a03eab7490482fb709e4ca002f04b4", "name": "Midnight Sun Dental", "amenity": "dentist", "healthcare": "dentist", "address": null }, "geometry": { "type": "Point", "coordinates": [ -149.818099227141573, 61.188662248682903 ] } },
{ "type": "Feature", "properties": { "id": "b1641c89953c4566acf08ac3ab8f7f80", "name": "Norton Sound Regional Hospital", "amenity": "hospital", "healthcare": "hospital", "address": null }, "geometry": { "type": "Point", "coordinates": [ -165.377951914778208, 64.499126745757039 ] } },
{ "type": "Feature", "properties": { "id": "7167d67079734b56bdf7488456bbdfa3", "name": "IRA Building", "amenity": "clinic", "healthcare": "clinic", "address": null }, "geometry": { "type": "Point", "coordinates": [ -168.952147413213424, 65.75735044040357 ] } },
{ "type": "Feature", "properties": { "id": "ad55f7e6553b480796127bb0a6b9867d", "name": null, "amenity": "hospital", "healthcare": null, "address": null }, "geometry": { "type": "Point", "coordinates": [ -157.423973568544483, 70.481723063655664 ] } },
{ "type": "Feature", "properties": { "id": "af07e64df73b4aabb0c594d920b80450", "name": null, "amenity": "doctors", "healthcare": "doctor", "address": null }, "geometry": { "type": "Point", "coordinates": [ -175.841463244471583, 65.012138962734554 ] } },
{ "type": "Feature", "properties": { "id": "7390f4d592154c1eaeced1f2a823f504", "name": "Camai Clinic", "amenity": "clinic", "healthcare": "clinic", "address": null }, "geometry": { "type": "Point", "coordinates": [ -157.007587974910223, 58.732849254747798 ] } },
{ "type": "Feature", "properties": { "id": "c2dcc5c486da49eebdc95188734f307e", "name": "Central Peninsula Hospital", "amenity": "hospital", "healthcare": "hospital", "address": null }, "geometry": { "type": "Point", "coordinates": [ -151.077321875261703, 60.493395992271168 ] } },
{ "type": "Feature", "properties": { "id": "97d2db6f8c9a4413906baf5c0c3c348d", "name": "Yukon Dentistry", "amenity": "dentist", "healthcare": "dentist", "address": null }, "geometry": { "type": "Point", "coordinates": [ -135.055081833739706, 60.722859269848925 ] } },
{ "type": "Feature", "properties": { "id": "8d3febc954c446c785b72befe95d3357", "name": "Bright Smiles Dental", "amenity": "dentist", "healthcare": "dentist", "address": null }, "geometry": { "type": "Point", "coordinates": [ -149.837197980255638, 61.137770517736527 ] } },
{ "type": "Feature", "properties": { "id": "fb7be4f061cc4788a2c34effdc466bad", "name": "Brock Tidstrom", "amenity": "dentist", "healthcare": "dentist", "address": null }, "geometry": { "type": "Point", "coordinates": [ -147.79510191814245, 64.837411066464966 ] } },
{ "type": "Feature", "properties": { "id": "a489e16797724bfdb96d1a91d3a4ab42", "name": "Tok Public Health Center", "amenity": "clinic", "healthcare": null, "address": null }, "geometry": { "type": "Point", "coordinates": [ -142.984193340535285, 63.336220170896553 ] } },
{ "type": "Feature", "properties": { "id": "f4a9eebc1792445fbe8443f8e423ec66", "name": "Arctic Chiropractic", "amenity": null, "healthcare": "alternative", "address": null }, "geometry": { "type": "Point", "coordinates": [ -149.885653008130447, 61.189248898086021 ] } },
{ "type": "Feature", "properties": { "id": "42048e4935a0444bbf544ff37a5f8727", "name": "Ostby Family Dental", "amenity": "dentist", "healthcare": "dentist", "address": null }, "geometry": { "type": "Point", "coordinates": [ -149.851313021380804, 61.180377994681379 ] } },
{ "type": "Feature", "properties": { "id": "d76ae2e4dc9c4fcfa41d65d701ad08b8", "name": "Alaska Urgent Care", "amenity": "clinic", "healthcare": "clinic", "address": null }, "geometry": { "type": "Point", "coordinates": [ -149.876771459708749, 61.143979161055228 ] } },
{ "type": "Feature", "properties": { "id": "11b81ebc1e45440181820764e4e1c508", "name": "Rockmore King Clinic", "amenity": "clinic", "healthcare": "clinic", "address": null }, "geometry": { "type": "Point", "coordinates": [ -152.50316807985908, 57.741459467577513 ] } },
{ "type": "Feature", "properties": { "id": "89c1246f875b46538586d2362d9fd4f2", "name": "Orthopedic Physicians Of Alaska", "amenity": "doctors", "healthcare": "doctor", "address": null }, "geometry": { "type": "Point", "coordinates": [ -149.808836469763548, 61.187028699573432 ] } },
{ "type": "Feature", "properties": { "id": "49f22e2dd0bc43bb83f6ebcd7e5d85be", "name": "Pediatric Dental Associates", "amenity": "dentist", "healthcare": "dentist", "address": null }, "geometry": { "type": "Point", "coordinates": [ -149.877719620595741, 61.180447564477703 ] } },
{ "type": "Feature", "properties": { "id": "fb5ca797db7e49f2b8526244fd5229c7", "name": "Gustavus Clinic", "amenity": "clinic", "healthcare": "clinic", "address": null }, "geometry": { "type": "Point", "coordinates": [ -135.727819920330433, 58.407663116526919 ] } },
{ "type": "Feature", "properties": { "id": "06aafdc6df084e2fafae15a7c66c7b86", "name": "Homer Rexall Drugs", "amenity": "pharmacy", "healthcare": "pharmacy", "address": null }, "geometry": { "type": "Point", "coordinates": [ -151.52330003007819, 59.646963542914648 ] } },
{ "type": "Feature", "properties": { "id": "d0381e60acbd40f3a08f7470421cea7f", "name": "Edgar Nollner Health Center", "amenity": "clinic", "healthcare": "clinic", "address": null }, "geometry": { "type": "Point", "coordinates": [ -156.876956954738006, 64.744692381397272 ] } },
{ "type": "Feature", "properties": { "id": "1585165d2aab4b14af119f85c2374d7e", "name": "Stikine Regional Health Centre", "amenity": "hospital", "healthcare": "hospital", "address": null }, "geometry": { "type": "Point", "coordinates": [ -129.992162658096476, 58.441839749101376 ] } },
{ "type": "Feature", "properties": { "id": "c980d985d4804e2ba4aa3fd058ef5e51", "name": "Alaska Regional MyHealth Clinic", "amenity": "clinic", "healthcare": "clinic", "address": null }, "geometry": { "type": "Point", "coordinates": [ -149.84398491265901, 61.141379341600405 ] } },
{ "type": "Feature", "properties": { "id": "d94529c318284735b8da0653e335ace2", "name": "EMT Shack", "amenity": "doctors", "healthcare": "doctor", "address": null }, "geometry": { "type": "Point", "coordinates": [ -149.597185124499276, 68.62682964898535 ] } }
]
}
